{"type": "FeatureCollection", "features": [{"type": "Feature", "properties": {"name": "Ascent (Stage 1)", "color": "#ff6b35", "stage": "ascent"}, "geometry": {"type": "LineString", "coordinates": [[-48.9540861, -21.9430528], [-48.9540861, -21.9430528], [-48.95408586547901, -21.9430528], [-48.95408390693053, -21.9430528], [-48.95407845220403, -21.943052838620133], [-48.954067747859135, -21.94305242918361], [-48.954051386476785, -21.94304822732331], [-48.954029306724166, -21.943037041122636], [-48.95400206224298, -21.94302151561435], [-48.953971594672005, -21.943003127666962], [-48.953939617894186, -21.942983241712085], [-48.95390695206663, -21.94296279428052], [-48.95387401442736, -21.942942050241097], [-48.95384108353462, -21.942921367939274], [-48.953808372626185, -21.942900863728493], [-48.95377599295809, -21.942880715240648], [-48.95374397425697, -21.942860885204425], [-48.95371228633656, -21.942841384854884], [-48.95368091868996, -21.942822163525896], [-48.95364985563106, -21.942803235453578], [-48.95361907721512, -21.942784562261277], [-48.95358857326612, -21.942766132662683], [-48.95355832718801, -21.942747937557694], [-48.95352832605288, -21.942729952831115], [-48.953498559019586, -21.94271217079122], [-48.95346901310596, -21.942694579685096], [-48.953439679118745, -21.9426771609549], [-48.953410552777996, -21.9426598962445], [-48.953381619914964, -21.942642783875378], [-48.95335286928493, -21.942625816225277], [-48.95332429685306, -21.942608976531055], [-48.95329589542587, -21.94259225570419], [-48.95326765473852, -21.942575649924297], [-48.95323956756367, -21.94255915088969], [-48.953211628853175, -21.942542748537544], [-48.95318383246616, -21.94252643620868], [-48.95315617119522, -21.94251020922312], [-48.95312863886615, -21.94249406242299], [-48.95310123032414, -21.942477989682413], [-48.95307394074319, -21.94246198532458], [-48.953046765278195, -21.942446044987424], [-48.95301969906807, -21.94243016503998], [-48.952992737539944, -21.942414341960827], [-48.952965876748976, -21.942398572292777], [-48.952939113277004, -21.942382852789947], [-48.952912444052544, -21.942367180598637], [-48.9528858662638, -21.942351553333058], [-48.952859377514976, -21.94233596908328], [-48.952832975939565, -21.94232042633679], [-48.952806660255504, -21.94230492391007], [-48.95278042980987, -21.942289460942384], [-48.95275428459558, -21.942274036922527], [-48.95272822523071, -21.94225865169698], [-48.952702252959, -21.942243305477962], [-48.95267636958898, -21.942227998810193], [-48.952650577308866, -21.94221273247476], [-48.95262487847142, -21.9421975073801], [-48.95259927543875, -21.942182324481138], [-48.95257377054376, -21.942167184752037], [-48.95254836644567, -21.942152089337128], [-48.952523066990636, -21.942137039930962]]}}, {"type": "Feature", "properties": {"name": "Parachute descent (Stage 2)", "color": "#3498db", "stage": "parachute"}, "geometry": {"type": "LineString", "coordinates": [[-48.952523066990636, -21.942137039930962], [-48.952523066990636, -21.942137039930962], [-48.952523066990636, -21.942137039930962], [-48.952523066990636, -21.942137039930962], [-48.952523066990636, -21.942137039930962], [-48.952523066990636, -21.942137039930962], [-48.952523066990636, -21.942137039930962], [-48.952523066990636, -21.942137039930962], [-48.952523066990636, -21.942137039930962], [-48.952523066990636, -21.942137039930962], [-48.95244979800202, -21.94209335511231], [-48.952316774432646, -21.94201092497179], [-48.95226193404662, -21.941964838465214], [-48.95222677982318, -21.941929575530075], [-48.95219622915309, -21.94189857620769], [-48.952166936195944, -21.94187039109497], [-48.952138149349494, -21.941844693527905], [-48.95210968895414, -21.941821404076606], [-48.95208151686172, -21.94180050425726], [-48.95205362646351, -21.941781989813855], [-48.95202601394924, -21.941765857113133], [-48.95199867826683, -21.94175210382267], [-48.95197161934529, -21.941740728585906], [-48.95194483695483, -21.94173172955141], [-48.95191833088619, -21.941725105033417], [-48.95189210103517, -21.941720853745913], [-48.9518661472311, -21.941718973970197], [-48.951840469271424, -21.941719463789056], [-48.95181506694344, -21.94172232129861], [-48.95178993999234, -21.941727544654142], [-48.95176508815234, -21.94173513202641], [-48.95174051121573, -21.941745081532712], [-48.95171620912545, -21.94175739115166], [-48.95169218184451, -21.941772058846954], [-48.95166842904865, -21.9417890831011], [-48.95164494994053, -21.94180846325108], [-48.9516217446826, -21.94183019682043], [-48.95159888638415, -21.94185414299416], [-48.95157656535263, -21.941879938121694], [-48.95155487209108, -21.941907407780242], [-48.951533830917484, -21.94193650265822], [-48.95151344230254, -21.941967218192605], [-48.95149370667581, -21.941999551298494], [-48.9514746237396, -21.942033499787364], [-48.95145619302109, -21.94206906213526], [-48.95143841408353, -21.942106237093984], [-48.95142128631578, -21.942145022960283], [-48.95140480906153, -21.942185417932386], [-48.95138898161529, -21.942227420271784], [-48.95137380324752, -21.9422710282787], [-48.95135927329779, -21.942316240412993], [-48.95134539118777, -21.942363055322836], [-48.95133215627275, -21.942411471456722], [-48.95131956771623, -21.942461486695212], [-48.95130761321128, -21.942513065339508], [-48.9512960589359, -21.94256552421795], [-48.951284671221956, -21.942618180763354], [-48.9512733917173, -21.942670864698997], [-48.95126220887755, -21.942723542486718], [-48.95125111988373, -21.942776206066622], [-48.95124012405786, -21.94282885362905], [-48.95122922114228, -21.942881484751005], [-48.95121841103906, -21.942934099371477], [-48.95120769371858, -21.942986697491392], [-48.95119706915099, -21.94303927911168], [-48.95118653729363, -21.943091844234385], [-48.951176098084055, -21.943144392863218], [-48.951165751458156, -21.94319692500204], [-48.951155497383276, -21.943249440652004], [-48.95114533615075, -21.94330193978647], [-48.95113526731489, -21.943354422456668], [-48.951125292038014, -21.94340688369726], [-48.95111542370394, -21.943459063198752], [-48.951105684594275, -21.943510546223788], [-48.95109608429988, -21.9435611741841], [-48.95108662378922, -21.94361092753325], [-48.951077303112186, -21.943659803463607], [-48.95106811835045, -21.943707825173618], [-48.95105908705842, -21.943754881907054], [-48.95105018210913, -21.943801144181666]]}}, {"type": "Feature", "properties": {"name": "SRAB descent (Stage 3)", "color": "#9b59b6", "stage": "srab"}, "geometry": {"type": "LineString", "coordinates": [[-48.952523066990636, -21.942137039930962], [-48.95251530740914, -21.942154329008936], [-48.95250970061996, -21.942167073028255], [-48.95250515372929, -21.942177691604037], [-48.9525019885183, -21.942185272024126], [-48.952499624038865, -21.942191045308746], [-48.95249747544681, -21.942196377403526], [-48.95249545471752, -21.94220146941426], [-48.952493425468106, -21.942206660462976], [-48.95249152296576, -21.94221159978193], [-48.952489609380116, -21.94221664047252], [-48.95248774014293, -21.94222163636403], [-48.95248585889468, -21.942226737967975], [-48.952483995809835, -21.942231864847578], [-48.95248215506889, -21.942237004832307], [-48.952480304219606, -21.94224224959616], [-48.95247843829554, -21.94224761667041], [-48.95247658035623, -21.942253042140536], [-48.952474703700254, -21.942258606755587], [-48.95247275983562, -21.942264462497988], [-48.95247080896535, -21.942270435813864], [-48.952468755085704, -21.942276831883984], [-48.952466620745376, -21.942283598619106], [-48.95246443002727, -21.942290675360496], [-48.952462051701886, -21.942298513719614], [-48.95245964323219, -21.942306622377348], [-48.9524570182706, -21.942315663433853], [-48.952454172877935, -21.942325713676194], [-48.952451209415635, -21.94233647037172], [-48.95244828347443, -21.942347395137034], [-48.95244542314864, -21.942358382341368], [-48.9524423510081, -21.94237054020791], [-48.95243945558563, -21.94238235631471], [-48.952436540251, -21.942394624967328], [-48.95243372245538, -21.94240685831766], [-48.95243093048626, -21.94241936556844], [-48.9524285755893, -21.942430167281593], [-48.9524262233638, -21.942440996057236], [-48.95242374660654, -21.942452427246756], [-48.95242118658901, -21.94246427435264], [-48.952418544305296, -21.942476536173114], [-48.95241587969716, -21.942488936876757], [-48.952413209628794, -21.942501398843646], [-48.95241051937023, -21.94251399166201], [-48.952407831853904, -21.942526608671816], [-48.95240525991701, -21.94253871803704], [-48.952402560101355, -21.9425514666057], [-48.952399900240486, -21.942564064017144], [-48.952397252905826, -21.94257663940716], [-48.952394616434454, -21.942589200517734], [-48.95239199010695, -21.942601750668228], [-48.95238935156342, -21.94261439709542], [-48.95238675816868, -21.942626864484854], [-48.95238416217709, -21.942639381790332], [-48.95238155653455, -21.942651983636644], [-48.95237899051342, -21.942664431414606], [-48.952376385548895, -21.9426771065813], [-48.95237382153275, -21.942689620708947], [-48.95237135267989, -21.942701706525963], [-48.952368759410135, -21.942714439950056], [-48.95236625548698, -21.942726772489895], [-48.95236369938868, -21.942739400698777], [-48.95236116377495, -21.942751966690416], [-48.95235868444322, -21.942764291659394], [-48.95235608457699, -21.942777256451464], [-48.9523536745025, -21.94278931231336], [-48.952351198584076, -21.94280173548084], [-48.95234867476545, -21.942814438937408], [-48.95234622588926, -21.94282680409554], [-48.952343754894365, -21.94283932016573], [-48.95234126430937, -21.942851975722753], [-48.95233877205964, -21.94286468059308], [-48.952336362812524, -21.942877001564895], [-48.95233384062335, -21.942889941851917], [-48.95233148249128, -21.94290207941509], [-48.952329100888406, -21.94291437639658], [-48.95232663740617, -21.942927137372884], [-48.952324249168875, -21.942939548992054], [-48.95232187175532, -21.942951944271716], [-48.95231946802545, -21.94296451764406], [-48.95231705466723, -21.942977183152106], [-48.952314668739504, -21.94298974626244], [-48.95231231038319, -21.94300220521419], [-48.95230997709863, -21.943014569926177], [-48.95230762751126, -21.943027021882337], [-48.952305320070906, -21.943039238538063], [-48.952302957356956, -21.943051735387716], [-48.952300669435964, -21.943063824448075], [-48.95229831248773, -21.943076265490234], [-48.95229604216557, -21.943088236851107], [-48.9522937065013, -21.943100539823696], [-48.952291518173716, -21.943112054613582], [-48.95228928691225, -21.94312378307508], [-48.95228698956993, -21.94313584575972], [-48.95228478553208, -21.943147405806233], [-48.95228264242654, -21.943158634122828], [-48.9522804380954, -21.943170170521398], [-48.95227824302154, -21.94318164546701], [-48.95227604412783, -21.94319312715064], [-48.952273876609304, -21.94320443182685], [-48.95227174079132, -21.943215558152616], [-48.95226958244053, -21.94322678851089], [-48.95226747213098, -21.9432377557033], [-48.95226530294316, -21.943249015047346], [-48.95226320699628, -21.943259880671967], [-48.952261115206596, -21.9432707112277], [-48.95225903017138, -21.943281493136514], [-48.952256991904385, -21.943292019773867], [-48.952254881390644, -21.94330290528941], [-48.952252830910204, -21.94331346704238], [-48.952250780914746, -21.943324012127103], [-48.95224872963252, -21.943334549389927], [-48.95224672461531, -21.943344834776724], [-48.95224473667443, -21.943355018434335], [-48.9522427312471, -21.94336527715043], [-48.95224075114834, -21.943375391724135], [-48.95223878878632, -21.943385401140304], [-48.952236795539825, -21.94339555297265], [-48.9522348919547, -21.943405233657938], [-48.95223293030218, -21.94341519454818], [-48.95223103171868, -21.94342482031432], [-48.9522291394663, -21.943434399144472], [-48.95222720377542, -21.943444182240377], [-48.952225306071796, -21.94345375770252], [-48.9522234650165, -21.943463032231623], [-48.95222160485959, -21.94347238758832], [-48.952219834806826, -21.943481275126604], [-48.95221800732162, -21.943490435745428], [-48.95221614319412, -21.94349976371281], [-48.952214374761176, -21.943508597278303], [-48.95221242011496, -21.94351835272376], [-48.95221054134118, -21.943527728596674], [-48.952208688293744, -21.943536975219942], [-48.95220685205212, -21.943546137136586], [-48.95220508407797, -21.94355495763744], [-48.95220330620525, -21.943563826735843], [-48.95220147485809, -21.943572961772404], [-48.9521996904646, -21.94358186179256], [-48.95219787770429, -21.943590902485298], [-48.9521960649937, -21.94359994211153], [-48.952194251315845, -21.943608985742518], [-48.95219248283762, -21.943617803204127], [-48.95219063973117, -21.943626991927008], [-48.952188841757945, -21.9436359548265], [-48.9521870495845, -21.943644888014674], [-48.95218522484702, -21.94365398270059], [-48.95218345749998, -21.943662790558495], [-48.9521816032343, -21.943672030756343], [-48.95217982314029, -21.9436809005389], [-48.952177965793474, -21.943690154416505], [-48.95217619184504, -21.943698991979623], [-48.95217437521827, -21.943708041352693], [-48.952172581861035, -21.943716974009497], [-48.95217072139412, -21.943726240096765], [-48.95216895459264, -21.94373503888954], [-48.95216712966845, -21.94374412632758], [-48.95216534229745, -21.94375302596754], [-48.9521635016758, -21.943762189927735], [-48.952161724753914, -21.943771035950935], [-48.95215988058579, -21.94378021592166], [-48.952158089347456, -21.94378913161391], [-48.95215621661559, -21.943798452086046], [-48.95215446660268, -21.943807161012927], [-48.95215262817461, -21.9438163091254], [-48.95215082289109, -21.943825291499788], [-48.95214898887478, -21.94383441601666], [-48.95214720477318, -21.943843291406935], [-48.95214535813639, -21.94385247706833], [-48.952143524125134, -21.943861599098373], [-48.95214172537514, -21.943870544943778], [-48.95213984152182, -21.943879913188646], [-48.95213804158375, -21.943888863317323], [-48.95213626545865, -21.943897694258823], [-48.95213443999953, -21.943906769685338], [-48.952132638815236, -21.943915723637687], [-48.952131302349976, -21.943922367197697], [-48.95212979848173, -21.943929842916866], [-48.952128177543464, -21.943937900590306], [-48.95212647032367, -21.943946387168666], [-48.952124734123345, -21.943955017809063], [-48.95212287686939, -21.943964250206246], [-48.9521210783578, -21.943973190595546], [-48.95211930883303, -21.9439819868915], [-48.95211748177765, -21.943991069171794], [-48.952115657879204, -21.94400013575898], [-48.952113852433875, -21.944009110615813], [-48.95211202566921, -21.94401819145095], [-48.9521101735213, -21.944027398466048], [-48.95210831299525, -21.944036647128776], [-48.952106550371994, -21.944045409117393], [-48.952104731413336, -21.944054451148922], [-48.95210292819545, -21.944063414933172], [-48.952101107567806, -21.9440724652612], [-48.95209923209303, -21.944081788233955], [-48.95209742004768, -21.944090795899516], [-48.95209562461884, -21.944099720964452], [-48.95209381382127, -21.944108722427238], [-48.952091984577145, -21.944117815587788], [-48.95209016120416, -21.944126879562873], [-48.95208833955755, -21.9441359349562], [-48.952086486602866, -21.944145145981743], [-48.95208469560981, -21.94415404899644], [-48.95208281551762, -21.94416339492236], [-48.95208105909599, -21.94417212608272], [-48.9520792171782, -21.944181282243914]]}}, {"type": "Feature", "properties": {"name": "Estimated impact zone", "stage": "impact"}, "geometry": {"type": "Point", "coordinates": [-48.95207900219752, -21.94418235091145]}}, {"type": "Feature", "properties": {"name": "Launch pad", "stage": "launch"}, "geometry": {"type": "Point", "coordinates": [-48.9540861, -21.9430528]}}]}